start=new Date('2023-01-12T00:00:00.000Z').valueOf();
sats=[{"FILE":"3740419","MEAN_ELEMENT_THEORY":"SGP4","PERIOD":"93.411","EPOCH":"2023-01-11T22:00:00.999936","DECAY_DATE":null,"RA_OF_ASC_NODE":"75.7863","ECCENTRICITY":"0.00012530","OBJECT_ID":"2022-119AX","TLE_LINE1":"1 53931U 22119AX  23011.91667824 -.00917228  00000-0 -23412-1 0  9990","OBJECT_TYPE":"PAYLOAD","LAUNCH_DATE":"2022-09-24","MEAN_MOTION":"15.41566663","PERIAPSIS":"440.632","REF_FRAME":"TEME","BSTAR":"-0.02341200000000","TIME_SYSTEM":"UTC","MEAN_ANOMALY":"236.3466","CLASSIFICATION_TYPE":"U","RCS_SIZE":"LARGE","EPHEMERIS_TYPE":"0","NORAD_CAT_ID":"53931","MEAN_MOTION_DOT":"-0.00917228","REV_AT_EPOCH":"130","TLE_LINE2":"2 53931  53.2175  75.7863 0001253  60.8213 236.3466 15.41566663  1300","INCLINATION":"53.2175","MEAN_MOTION_DDOT":"0.0000000000000","SITE":"AFETR","APOAPSIS":"442.341","ARG_OF_PERICENTER":"60.8213","CENTER_NAME":"EARTH","COUNTRY_CODE":"US","OBJECT_NAME":"STARLINK-5015","SEMIMAJOR_AXIS":"6819.622","GP_ID":"222827658","ELEMENT_SET_NO":"999"},{"MEAN_MOTION_DDOT":"0.0000000000000","INCLINATION":"53.2174","SITE":"AFETR","TLE_LINE2":"2 53932  53.2174  75.6876 0001077  93.1716 252.6954 15.39174449  1301","NORAD_CAT_ID":"53932","REV_AT_EPOCH":"130","MEAN_MOTION_DOT":"-0.01142302","EPHEMERIS_TYPE":"0","GP_ID":"222826970","ELEMENT_SET_NO":"999","SEMIMAJOR_AXIS":"6826.686","OBJECT_NAME":"STARLINK-4772","COUNTRY_CODE":"US","APOAPSIS":"449.287","CENTER_NAME":"EARTH","ARG_OF_PERICENTER":"93.1716","TLE_LINE1":"1 53932U 22119AY  23011.91667824 -.01142302  00000-0 -31738-1 0  9995","OBJECT_ID":"2022-119AY","ECCENTRICITY":"0.00010770","RA_OF_ASC_NODE":"75.6876","DECAY_DATE":null,"PERIOD":"93.557","EPOCH":"2023-01-11T22:00:00.999936","MEAN_ELEMENT_THEORY":"SGP4","FILE":"3740419","RCS_SIZE":"LARGE","BSTAR":"-0.03173800000000","TIME_SYSTEM":"UTC","MEAN_ANOMALY":"252.6954","CLASSIFICATION_TYPE":"U","PERIAPSIS":"447.816","LAUNCH_DATE":"2022-09-24","MEAN_MOTION":"15.39174449","REF_FRAME":"TEME","OBJECT_TYPE":"PAYLOAD"},{"BSTAR":"-0.06179800000000","TIME_SYSTEM":"UTC","MEAN_ANOMALY":"57.1660","CLASSIFICATION_TYPE":"U","RCS_SIZE":"LARGE","OBJECT_TYPE":"PAYLOAD","MEAN_MOTION":"15.17361397","LAUNCH_DATE":"2022-09-24","PERIAPSIS":"512.419","REF_FRAME":"TEME","DECAY_DATE":null,"RA_OF_ASC_NODE":"79.0748","ECCENTRICITY":"0.00020340","TLE_LINE1":"1 53933U 22119AZ  23011.91667824 -.01150912  00000-0 -61798-1 0  9991","OBJECT_ID":"2022-119AZ","FILE":"3740419","MEAN_ELEMENT_THEORY":"SGP4","PERIOD":"94.902","EPOCH":"2023-01-11T22:00:00.999936","OBJECT_NAME":"STARLINK-4782","SEMIMAJOR_AXIS":"6891.956","ELEMENT_SET_NO":"999","GP_ID":"222826733","APOAPSIS":"515.223","CENTER_NAME":"EARTH","ARG_OF_PERICENTER":"32.1816","COUNTRY_CODE":"US","TLE_LINE2":"2 53933  53.2175  79.0748 0002034  32.1816  57.1660 15.17361397  1305","INCLINATION":"53.2175","MEAN_MOTION_DDOT":"0.0000000000000","SITE":"AFETR","EPHEMERIS_TYPE":"0","NORAD_CAT_ID":"53933","REV_AT_EPOCH":"130","MEAN_MOTION_DOT":"-0.01150912"},{"CLASSIFICATION_TYPE":"U","MEAN_ANOMALY":"342.8349","BSTAR":"-0.02951000000000","TIME_SYSTEM":"UTC","RCS_SIZE":"LARGE","OBJECT_TYPE":"PAYLOAD","MEAN_MOTION":"15.41130463","LAUNCH_DATE":"2022-09-24","PERIAPSIS":"441.622","REF_FRAME":"TEME","RA_OF_ASC_NODE":"75.6294","DECAY_DATE":null,"TLE_LINE1":"1 53934U 22119BA  23011.91667824 -.01134380  00000-0 -29510-1 0  9999","OBJECT_ID":"2022-119BA","ECCENTRICITY":"0.00016890","MEAN_ELEMENT_THEORY":"SGP4","FILE":"3740419","EPOCH":"2023-01-11T22:00:00.999936","PERIOD":"93.438","OBJECT_NAME":"STARLINK-4775","ELEMENT_SET_NO":"999","GP_ID":"222827431","SEMIMAJOR_AXIS":"6820.909","COUNTRY_CODE":"US","CENTER_NAME":"EARTH","ARG_OF_PERICENTER":"32.5143","APOAPSIS":"443.926","TLE_LINE2":"2 53934  53.2173  75.6294 0001689  32.5143 342.8349 15.41130463  1307","SITE":"AFETR","INCLINATION":"53.2173","MEAN_MOTION_DDOT":"0.0000000000000","MEAN_MOTION_DOT":"-0.01134380","REV_AT_EPOCH":"130","NORAD_CAT_ID":"53934","EPHEMERIS_TYPE":"0"},{"NORAD_CAT_ID":"53935","MEAN_MOTION_DOT":"0.00005928","REV_AT_EPOCH":"1800","EPHEMERIS_TYPE":"0","TLE_LINE2":"2 53935  53.2116  73.9710 0006915 307.8059  52.2335 15.73221057 18007","MEAN_MOTION_DDOT":"0.0000000000000","INCLINATION":"53.2116","SITE":"AFETR","COUNTRY_CODE":"US","APOAPSIS":"354.352","CENTER_NAME":"EARTH","ARG_OF_PERICENTER":"307.8059","OBJECT_NAME":"STARLINK-5000","ELEMENT_SET_NO":"999","GP_ID":"222828116","SEMIMAJOR_AXIS":"6727.835","MEAN_ELEMENT_THEORY":"SGP4","FILE":"3740419","PERIOD":"91.532","EPOCH":"2023-01-11T21:03:50.973984","RA_OF_ASC_NODE":"73.9710","DECAY_DATE":null,"OBJECT_ID":"2022-119BB","TLE_LINE1":"1 53935U 22119BB  23011.87767331  .00005928  00000-0  46584-4 0  9994","ECCENTRICITY":"0.00069150","OBJECT_TYPE":"PAYLOAD","LAUNCH_DATE":"2022-09-24","PERIAPSIS":"345.048","MEAN_MOTION":"15.73221057","REF_FRAME":"TEME","TIME_SYSTEM":"UTC","BSTAR":"0.00004658400000","MEAN_ANOMALY":"52.2335","CLASSIFICATION_TYPE":"U","RCS_SIZE":"LARGE"},{"SEMIMAJOR_AXIS":"6815.123","ELEMENT_SET_NO":"999","GP_ID":"222826502","OBJECT_NAME":"STARLINK-4791","APOAPSIS":"438.271","ARG_OF_PERICENTER":"28.5355","CENTER_NAME":"EARTH","COUNTRY_CODE":"US","INCLINATION":"53.2175","MEAN_MOTION_DDOT":"0.0000000000000","SITE":"AFETR","TLE_LINE2":"2 53936  53.2175  75.5819 0001883  28.5355  10.6131 15.43093458  1302","EPHEMERIS_TYPE":"0","NORAD_CAT_ID":"53936","REV_AT_EPOCH":"130","MEAN_MOTION_DOT":"-0.01137054","RCS_SIZE":"LARGE","TIME_SYSTEM":"UTC","BSTAR":"-0.02769100000000","MEAN_ANOMALY":"10.6131","CLASSIFICATION_TYPE":"U","LAUNCH_DATE":"2022-09-24","PERIAPSIS":"435.705","MEAN_MOTION":"15.43093458","REF_FRAME":"TEME","OBJECT_TYPE":"PAYLOAD","ECCENTRICITY":"0.00018830","TLE_LINE1":"1 53936U 22119BC  23011.91667824 -.01137054  00000-0 -27691-1 0  9990","OBJECT_ID":"2022-119BC","DECAY_DATE":null,"RA_OF_ASC_NODE":"75.5819","PERIOD":"93.319","EPOCH":"2023-01-11T22:00:00.999936","FILE":"3740419","MEAN_ELEMENT_THEORY":"SGP4"},{"RA_OF_ASC_NODE":"74.1609","DECAY_DATE":null,"TLE_LINE1":"1 53937U 22119BD  23011.91667824 -.00910404  00000-0 -12885-1 0  9997","OBJECT_ID":"2022-119BD","ECCENTRICITY":"0.00011900","MEAN_ELEMENT_THEORY":"SGP4","FILE":"3740419","PERIOD":"92.397","EPOCH":"2023-01-11T22:00:00.999936","BSTAR":"-0.01288500000000","MEAN_ANOMALY":"325.6424","TIME_SYSTEM":"UTC","CLASSIFICATION_TYPE":"U","RCS_SIZE":"LARGE","OBJECT_TYPE":"PAYLOAD","LAUNCH_DATE":"2022-09-24","REF_FRAME":"TEME","PERIAPSIS":"391.227","MEAN_MOTION":"15.58488648","TLE_LINE2":"2 53937  53.2174  74.1609 0001190  55.7812 325.6424 15.58488648  1304","MEAN_MOTION_DDOT":"0.0000000000000","INCLINATION":"53.2174","SITE":"AFETR","NORAD_CAT_ID":"53937","REV_AT_EPOCH":"130","MEAN_MOTION_DOT":"-0.00910404","EPHEMERIS_TYPE":"0","OBJECT_NAME":"STARLINK-4765","ELEMENT_SET_NO":"999","GP_ID":"222827201","SEMIMAJOR_AXIS":"6770.167","COUNTRY_CODE":"US","APOAPSIS":"392.838","CENTER_NAME":"EARTH","ARG_OF_PERICENTER":"55.7812"},{"NORAD_CAT_ID":"53964","REV_AT_EPOCH":"1528","MEAN_MOTION_DOT":"0.00000513","EPHEMERIS_TYPE":"0","INCLINATION":"53.2178","MEAN_MOTION_DDOT":"0.0000000000000","SITE":"AFWTR","TLE_LINE2":"2 53964  53.2178 359.4763 0001646  86.3376 273.7804 15.08837502 15288","COUNTRY_CODE":"US","APOAPSIS":"540.892","ARG_OF_PERICENTER":"86.3376","CENTER_NAME":"EARTH","ELEMENT_SET_NO":"999","GP_ID":"222827203","SEMIMAJOR_AXIS":"6917.888","OBJECT_NAME":"STARLINK-4633","PERIOD":"95.438","EPOCH":"2023-01-11T20:55:44.342400","MEAN_ELEMENT_THEORY":"SGP4","FILE":"3740419","OBJECT_ID":"2022-125A","TLE_LINE1":"1 53964U 22125A   23011.87204100  .00000513  00000-0  50314-4 0  9994","ECCENTRICITY":"0.00016460","RA_OF_ASC_NODE":"359.4763","DECAY_DATE":null,"PERIAPSIS":"538.614","LAUNCH_DATE":"2022-10-05","REF_FRAME":"TEME","MEAN_MOTION":"15.08837502","OBJECT_TYPE":"PAYLOAD","RCS_SIZE":"LARGE","BSTAR":"0.00005031400000","TIME_SYSTEM":"UTC","MEAN_ANOMALY":"273.7804","CLASSIFICATION_TYPE":"U"},{"SITE":"AFWTR","MEAN_MOTION_DDOT":"0.0000000000000","INCLINATION":"53.2176","TLE_LINE2":"2 53965  53.2176   0.3482 0002505  33.9031 326.2121 15.08848069 15251","EPHEMERIS_TYPE":"0","MEAN_MOTION_DOT":"0.00001881","REV_AT_EPOCH":"1525","NORAD_CAT_ID":"53965","SEMIMAJOR_AXIS":"6917.856","GP_ID":"222827892","ELEMENT_SET_NO":"999","OBJECT_NAME":"STARLINK-4578","CENTER_NAME":"EARTH","ARG_OF_PERICENTER":"33.9031","APOAPSIS":"541.454","COUNTRY_CODE":"US","ECCENTRICITY":"0.00025050","OBJECT_ID":"2022-125B","TLE_LINE1":"1 53965U 22125B   23011.66961547  .00001881  00000-0  13624-3 0  9998","DECAY_DATE":null,"RA_OF_ASC_NODE":"0.3482","EPOCH":"2023-01-11T16:04:14.776608","PERIOD":"95.437","FILE":"3740419","MEAN_ELEMENT_THEORY":"SGP4","RCS_SIZE":"LARGE","CLASSIFICATION_TYPE":"U","BSTAR":"0.00013624000000","TIME_SYSTEM":"UTC","MEAN_ANOMALY":"326.2121","REF_FRAME":"TEME","LAUNCH_DATE":"2022-10-05","PERIAPSIS":"537.988","MEAN_MOTION":"15.08848069","OBJECT_TYPE":"PAYLOAD"},{"OBJECT_TYPE":"PAYLOAD","LAUNCH_DATE":"2022-10-05","REF_FRAME":"TEME","PERIAPSIS":"538.345","MEAN_MOTION":"15.08828004","MEAN_ANOMALY":"303.4215","BSTAR":"0.00001346000000","TIME_SYSTEM":"UTC","CLASSIFICATION_TYPE":"U","RCS_SIZE":"LARGE","FILE":"3740419","MEAN_ELEMENT_THEORY":"SGP4","PERIOD":"95.438","EPOCH":"2023-01-11T15:58:58.674432","DECAY_DATE":null,"RA_OF_ASC_NODE":"0.3241","ECCENTRICITY":"0.00020780","OBJECT_ID":"2022-125C","TLE_LINE1":"1 53966U 22125C   23011.66595688 -.00000074  00000-0  13460-4 0  9991","APOAPSIS":"541.220","CENTER_NAME":"EARTH","ARG_OF_PERICENTER":"56.6976","COUNTRY_CODE":"US","OBJECT_NAME":"STARLINK-4635","SEMIMAJOR_AXIS":"6917.917","ELEMENT_SET_NO":"999","GP_ID":"222827661","EPHEMERIS_TYPE":"0","NORAD_CAT_ID":"53966","REV_AT_EPOCH":"1525","MEAN_MOTION_DOT":"-0.00000074","TLE_LINE2":"2 53966  53.2195   0.3241 0002078  56.6976 303.4215 15.08828004 15259","MEAN_MOTION_DDOT":"0.0000000000000","INCLINATION":"53.2195","SITE":"AFWTR"}];
